{
  "type": "FeatureCollection",
  "features": [
    {
      "type": "Feature",
      "properties": {
        "norad_id": 42988,
        "name": "SKYSAT-C10",
        "group": "resource",
        "lat": -17.930544576400873,
        "lon": -68.33872684226674,
        "alt_km": 474.7829279610205,
        "timestamp": "2025-12-09T05:43:20.385345+00:00",
        "meta_object_name": "SKYSAT-C10",
        "meta_object_id": "2017-068B",
        "meta_epoch": "2025-12-08T19:27:19.435104",
        "meta_mean_motion": 15.3193311,
        "meta_eccentricity": 0.0005311,
        "meta_inclination": 97.4262,
        "meta_ra_of_asc_node": 113.6514,
        "meta_arg_of_pericenter": 114.6154,
        "meta_mean_anomaly": 245.5642,
        "meta_ephemeris_type": 0,
        "meta_classification_type": "U",
        "meta_norad_cat_id": 42988,
        "meta_element_set_no": 999,
        "meta_rev_at_epoch": 45319,
        "meta_bstar": 0.00050452,
        "meta_mean_motion_dot": 0.00015498,
        "meta_mean_motion_ddot": 0,
        "tle_line1": "1 42988U 17068B   25342.81064161  .00015498  00000+0  50452-3 0  9991",
        "tle_line2": "2 42988  97.4262 113.6514 0005311 114.6154 245.5642 15.31933110453193"
      },
      "geometry": {
        "type": "Point",
        "coordinates": [
          -68.33872684226674,
          -17.930544576400873
        ]
      }
    },
    {
      "type": "Feature",
      "properties": {
        "norad_id": 42989,
        "name": "SKYSAT-C9",
        "group": "resource",
        "lat": -4.7972523782632095,
        "lon": 114.0917017846385,
        "alt_km": 463.6130480150705,
        "timestamp": "2025-12-09T05:43:20.385356+00:00",
        "meta_object_name": "SKYSAT-C9",
        "meta_object_id": "2017-068C",
        "meta_epoch": "2025-12-08T18:47:53.100672",
        "meta_mean_motion": 15.35896579,
        "meta_eccentricity": 0.0010683,
        "meta_inclination": 97.4192,
        "meta_ra_of_asc_node": 113.0065,
        "meta_arg_of_pericenter": 100.3673,
        "meta_mean_anomaly": 259.8775,
        "meta_ephemeris_type": 0,
        "meta_classification_type": "U",
        "meta_norad_cat_id": 42989,
        "meta_element_set_no": 999,
        "meta_rev_at_epoch": 45347,
        "meta_bstar": 0.00055919,
        "meta_mean_motion_dot": 0.00019517,
        "meta_mean_motion_ddot": 0,
        "tle_line1": "1 42989U 17068C   25342.78325348  .00019517  00000+0  55919-3 0  9994",
        "tle_line2": "2 42989  97.4192 113.0065 0010683 100.3673 259.8775 15.35896579453474"
      },
      "geometry": {
        "type": "Point",
        "coordinates": [
          114.0917017846385,
          -4.7972523782632095
        ]
      }
    },
    {
      "type": "Feature",
      "properties": {
        "norad_id": 42990,
        "name": "SKYSAT-C8",
        "group": "resource",
        "lat": 5.341139824662048,
        "lon": 112.52502279941547,
        "alt_km": 468.5588578732577,
        "timestamp": "2025-12-09T05:43:20.385367+00:00",
        "meta_object_name": "SKYSAT-C8",
        "meta_object_id": "2017-068D",
        "meta_epoch": "2025-12-08T20:17:53.638080",
        "meta_mean_motion": 15.32788489,
        "meta_eccentricity": 0.0001872,
        "meta_inclination": 97.4283,
        "meta_ra_of_asc_node": 112.8297,
        "meta_arg_of_pericenter": 4.1337,
        "meta_mean_anomaly": 355.992,
        "meta_ephemeris_type": 0,
        "meta_classification_type": "U",
        "meta_norad_cat_id": 42990,
        "meta_element_set_no": 999,
        "meta_rev_at_epoch": 45311,
        "meta_bstar": 0.00053276,
        "meta_mean_motion_dot": 0.00016811,
        "meta_mean_motion_ddot": 0,
        "tle_line1": "1 42990U 17068D   25342.84575970  .00016811  00000+0  53276-3 0  9999",
        "tle_line2": "2 42990  97.4283 112.8297 0001872   4.1337 355.9920 15.32788489453117"
      },
      "geometry": {
        "type": "Point",
        "coordinates": [
          112.52502279941547,
          5.341139824662048
        ]
      }
    },
    {
      "type": "Feature",
      "properties": {
        "norad_id": 42991,
        "name": "SKYSAT-C7",
        "group": "resource",
        "lat": -47.982318863955406,
        "lon": -74.05936732663531,
        "alt_km": 481.171663783688,
        "timestamp": "2025-12-09T05:43:20.385377+00:00",
        "meta_object_name": "SKYSAT-C7",
        "meta_object_id": "2017-068E",
        "meta_epoch": "2025-12-08T19:19:28.087680",
        "meta_mean_motion": 15.32193317,
        "meta_eccentricity": 0.000781,
        "meta_inclination": 97.4291,
        "meta_ra_of_asc_node": 113.8334,
        "meta_arg_of_pericenter": 69.3012,
        "meta_mean_anomaly": 290.9066,
        "meta_ephemeris_type": 0,
        "meta_classification_type": "U",
        "meta_norad_cat_id": 42991,
        "meta_element_set_no": 999,
        "meta_rev_at_epoch": 45317,
        "meta_bstar": 0.00049981,
        "meta_mean_motion_dot": 0.00015485,
        "meta_mean_motion_ddot": 0,
        "tle_line1": "1 42991U 17068E   25342.80518620  .00015485  00000+0  49981-3 0  9999",
        "tle_line2": "2 42991  97.4291 113.8334 0007810  69.3012 290.9066 15.32193317453176"
      },
      "geometry": {
        "type": "Point",
        "coordinates": [
          -74.05936732663531,
          -47.982318863955406
        ]
      }
    },
    {
      "type": "Feature",
      "properties": {
        "norad_id": 42992,
        "name": "SKYSAT-C6",
        "group": "resource",
        "lat": -4.319657425006892,
        "lon": 115.27427577930179,
        "alt_km": 475.73431502558196,
        "timestamp": "2025-12-09T05:43:20.385390+00:00",
        "meta_object_name": "SKYSAT-C6",
        "meta_object_id": "2017-068F",
        "meta_epoch": "2025-12-08T20:19:54.821856",
        "meta_mean_motion": 15.31364354,
        "meta_eccentricity": 0.0005228,
        "meta_inclination": 97.4324,
        "meta_ra_of_asc_node": 114.3171,
        "meta_arg_of_pericenter": 93.2701,
        "meta_mean_anomaly": 266.9138,
        "meta_ephemeris_type": 0,
        "meta_classification_type": "U",
        "meta_norad_cat_id": 42992,
        "meta_element_set_no": 999,
        "meta_rev_at_epoch": 45316,
        "meta_bstar": 0.0005162,
        "meta_mean_motion_dot": 0.00015579,
        "meta_mean_motion_ddot": 0,
        "tle_line1": "1 42992U 17068F   25342.84716229  .00015579  00000+0  51620-3 0  9996",
        "tle_line2": "2 42992  97.4324 114.3171 0005228  93.2701 266.9138 15.31364354453163"
      },
      "geometry": {
        "type": "Point",
        "coordinates": [
          115.27427577930179,
          -4.319657425006892
        ]
      }
    },
    {
      "type": "Feature",
      "properties": {
        "norad_id": 43111,
        "name": "CARTOSAT-2F",
        "group": "resource",
        "lat": -73.83753961978931,
        "lon": -165.83614544576864,
        "alt_km": 515.7876501260571,
        "timestamp": "2025-12-09T05:43:20.385400+00:00",
        "meta_object_name": "CARTOSAT-2F",
        "meta_object_id": "2018-004A",
        "meta_epoch": "2025-12-08T20:41:48.476832",
        "meta_mean_motion": 15.1920935,
        "meta_eccentricity": 6.57e-05,
        "meta_inclination": 97.4316,
        "meta_ra_of_asc_node": 40.5623,
        "meta_arg_of_pericenter": 135.3791,
        "meta_mean_anomaly": 224.7496,
        "meta_ephemeris_type": 0,
        "meta_classification_type": "U",
        "meta_norad_cat_id": 43111,
        "meta_element_set_no": 999,
        "meta_rev_at_epoch": 43843,
        "meta_bstar": 0.00021344,
        "meta_mean_motion_dot": 4.425e-05,
        "meta_mean_motion_ddot": 0,
        "tle_line1": "1 43111U 18004A   25342.86236663  .00004425  00000+0  21344-3 0  9990",
        "tle_line2": "2 43111  97.4316  40.5623 0000657 135.3791 224.7496 15.19209350438430"
      },
      "geometry": {
        "type": "Point",
        "coordinates": [
          -165.83614544576864,
          -73.83753961978931
        ]
      }
    },
    {
      "type": "Feature",
      "properties": {
        "norad_id": 43259,
        "name": "GAOFEN-1 02",
        "group": "resource",
        "lat": -20.235642635800108,
        "lon": -141.9757690190618,
        "alt_km": 644.8391167961045,
        "timestamp": "2025-12-09T05:43:20.385410+00:00",
        "meta_object_name": "GAOFEN-1 02",
        "meta_object_id": "2018-031A",
        "meta_epoch": "2025-12-08T20:41:06.995328",
        "meta_mean_motion": 14.76467755,
        "meta_eccentricity": 0.0001412,
        "meta_inclination": 98.0808,
        "meta_ra_of_asc_node": 40.6497,
        "meta_arg_of_pericenter": 229.248,
        "meta_mean_anomaly": 130.8607,
        "meta_ephemeris_type": 0,
        "meta_classification_type": "U",
        "meta_norad_cat_id": 43259,
        "meta_element_set_no": 999,
        "meta_rev_at_epoch": 41461,
        "meta_bstar": 0.00022752,
        "meta_mean_motion_dot": 1.532e-05,
        "meta_mean_motion_ddot": 0,
        "tle_line1": "1 43259U 18031A   25342.86188652  .00001532  00000+0  22752-3 0  9997",
        "tle_line2": "2 43259  98.0808  40.6497 0001412 229.2480 130.8607 14.76467755414616"
      },
      "geometry": {
        "type": "Point",
        "coordinates": [
          -141.9757690190618,
          -20.235642635800108
        ]
      }
    }
  ]
}